{"type": "FeatureCollection", "features": [ {"type": "Feature", "properties": {"norad_id": 30110, "name": "FENGYUN 1C DEB", "group": "fengyun-1c-debris", "lat": -35.38156614266029, "lon": 101.08348810463188, "alt_km": 884.3229426135958, "timestamp": "2025-12-11T18:59:46.347203+00:00", "meta": {"OBJECT_NAME": "FENGYUN 1C DEB", "OBJECT_ID": "1999-025RP", "EPOCH": "2025-12-11T06:46:13.188576", "MEAN_MOTION": 13.56223583, "ECCENTRICITY": 0.02676654, "INCLINATION": 98.9077, "RA_OF_ASC_NODE": 94.2277, "ARG_OF_PERICENTER": 356.8439, "MEAN_ANOMALY": 3.1004, "EPHEMERIS_TYPE": 0, "CLASSIFICATION_TYPE": "U", "NORAD_CAT_ID": 30110, "ELEMENT_SET_NO": 999, "REV_AT_EPOCH": 93495, "BSTAR": 0.00036256976, "MEAN_MOTION_DOT": 2.82e-06, "MEAN_MOTION_DDOT": 0}, "tle": {"line1": "1 30110U 99025RP  25345.28209709  .00000282  00000+0  36257-3 0  9993", "line2": "2 30110  98.9077  94.2277 0267665 356.8439   3.1004 13.56223583934954"}}, "geometry": {"type": "Point", "coordinates": [101.08348810463188, -35.38156614266029]}}, {"type": "Feature", "properties": {"norad_id": 30112, "name": "FENGYUN 1C DEB", "group": "fengyun-1c-debris", "lat": -67.33765238164793, "lon": -17.253148887488532, "alt_km": 970.2459604398091, "timestamp": "2025-12-11T18:59:46.347214+00:00", "meta": {"OBJECT_NAME": "FENGYUN 1C DEB", "OBJECT_ID": "1999-025RR", "EPOCH": "2025-12-11T04:08:07.012032", "MEAN_MOTION": 14.22214465, "ECCENTRICITY": 0.02017143, "INCLINATION": 99.2817, "RA_OF_ASC_NODE": 319.0371, "ARG_OF_PERICENTER": 112.0896, "MEAN_ANOMALY": 250.1832, "EPHEMERIS_TYPE": 0, "CLASSIFICATION_TYPE": "U", "NORAD_CAT_ID": 30112, "ELEMENT_SET_NO": 999, "REV_AT_EPOCH": 97560, "BSTAR": 0.00070680697, "MEAN_MOTION_DOT": 1.88e-05, "MEAN_MOTION_DDOT": 0}, "tle": {"line1": "1 30112U 99025RR  25345.17230338  .00001880  00000+0  70681-3 0  9999", "line2": "2 30112  99.2817 319.0371 0201714 112.0896 250.1832 14.22214465975600"}}, "geometry": {"type": "Point", "coordinates": [-17.253148887488532, -67.33765238164793]}}, {"type": "Feature", "properties": {"norad_id": 30113, "name": "FENGYUN 1C DEB", "group": "fengyun-1c-debris", "lat": 80.72920245347399, "lon": 95.08492528918521, "alt_km": 732.1360213403004, "timestamp": "2025-12-11T18:59:46.347225+00:00", "meta": {"OBJECT_NAME": "FENGYUN 1C DEB", "OBJECT_ID": "1999-025RS", "EPOCH": "2025-12-11T01:03:32.813856", "MEAN_MOTION": 14.45289811, "ECCENTRICITY": 0.00407448, "INCLINATION": 99.0375, "RA_OF_ASC_NODE": 197.1174, "ARG_OF_PERICENTER": 6.8668, "MEAN_ANOMALY": 158.2689, "EPHEMERIS_TYPE": 0, "CLASSIFICATION_TYPE": "U", "NORAD_CAT_ID": 30113, "ELEMENT_SET_NO": 999, "REV_AT_EPOCH": 97884, "BSTAR": 0.0029106805, "MEAN_MOTION_DOT": 0.00010286, "MEAN_MOTION_DDOT": 0}, "tle": {"line1": "1 30113U 99025RS  25345.04412979  .00010286  00000+0  29107-2 0  9995", "line2": "2 30113  99.0375 197.1174 0040744   6.8668 158.2689 14.45289811978844"}}, "geometry": {"type": "Point", "coordinates": [95.08492528918521, 80.72920245347399]}}, {"type": "Feature", "properties": {"norad_id": 30114, "name": "FENGYUN 1C DEB", "group": "fengyun-1c-debris", "lat": 0.022627279426118398, "lon": -11.823598885598308, "alt_km": 894.8382816365483, "timestamp": "2025-12-11T18:59:46.347235+00:00", "meta": {"OBJECT_NAME": "FENGYUN 1C DEB", "OBJECT_ID": "1999-025RT", "EPOCH": "2025-12-10T12:53:07.926720", "MEAN_MOTION": 14.09649909, "ECCENTRICITY": 0.00821411, "INCLINATION": 98.7467, "RA_OF_ASC_NODE": 346.9609, "ARG_OF_PERICENTER": 125.9295, "MEAN_ANOMALY": 351.7288, "EPHEMERIS_TYPE": 0, "CLASSIFICATION_TYPE": "U", "NORAD_CAT_ID": 30114, "ELEMENT_SET_NO": 999, "REV_AT_EPOCH": 97123, "BSTAR": 0.00033102967, "MEAN_MOTION_DOT": 5.57e-06, "MEAN_MOTION_DDOT": 0}, "tle": {"line1": "1 30114U 99025RT  25344.53689730  .00000557  00000+0  33103-3 0  9992", "line2": "2 30114  98.7467 346.9609 0082141 125.9295 351.7288 14.09649909971235"}}, "geometry": {"type": "Point", "coordinates": [-11.823598885598308, 0.022627279426118398]}}, {"type": "Feature", "properties": {"norad_id": 30115, "name": "FENGYUN 1C DEB", "group": "fengyun-1c-debris", "lat": 35.98545287028122, "lon": 6.775608460418222, "alt_km": 779.9280765117974, "timestamp": "2025-12-11T18:59:46.347246+00:00", "meta": {"OBJECT_NAME": "FENGYUN 1C DEB", "OBJECT_ID": "1999-025RU", "EPOCH": "2025-12-10T13:05:57.361056", "MEAN_MOTION": 14.19763679, "ECCENTRICITY": 0.0067903, "INCLINATION": 98.6229, "RA_OF_ASC_NODE": 11.8884, "ARG_OF_PERICENTER": 67.1334, "MEAN_ANOMALY": 86.3616, "EPHEMERIS_TYPE": 0, "CLASSIFICATION_TYPE": "U", "NORAD_CAT_ID": 30115, "ELEMENT_SET_NO": 999, "REV_AT_EPOCH": 97297, "BSTAR": 0.001369, "MEAN_MOTION_DOT": 2.925e-05, "MEAN_MOTION_DDOT": 0}, "tle": {"line1": "1 30115U 99025RU  25344.54580279  .00002925  00000+0  13690-2 0  9991", "line2": "2 30115  98.6229  11.8884 0067903  67.1334  86.3616 14.19763679972974"}}, "geometry": {"type": "Point", "coordinates": [6.775608460418222, 35.98545287028122]}}, {"type": "Feature", "properties": {"norad_id": 30116, "name": "FENGYUN 1C DEB", "group": "fengyun-1c-debris", "lat": -68.96813517835146, "lon": 82.26222786474854, "alt_km": 793.1942470306867, "timestamp": "2025-12-11T18:59:46.347256+00:00", "meta": {"OBJECT_NAME": "FENGYUN 1C DEB", "OBJECT_ID": "1999-025RV", "EPOCH": "2025-12-11T04:27:22.824576", "MEAN_MOTION": 14.29264615, "ECCENTRICITY": 0.00204726, "INCLINATION": 99.3972, "RA_OF_ASC_NODE": 56.0976, "ARG_OF_PERICENTER": 346.8603, "MEAN_ANOMALY": 66.8048, "EPHEMERIS_TYPE": 0, "CLASSIFICATION_TYPE": "U", "NORAD_CAT_ID": 30116, "ELEMENT_SET_NO": 999, "REV_AT_EPOCH": 97487, "BSTAR": 0.0020817416, "MEAN_MOTION_DOT": 5.259e-05, "MEAN_MOTION_DDOT": 0}, "tle": {"line1": "1 30116U 99025RV  25345.18568084  .00005259  00000+0  20817-2 0  9995", "line2": "2 30116  99.3972  56.0976 0020472 346.8603  66.8048 14.29264615974877"}}, "geometry": {"type": "Point", "coordinates": [82.26222786474854, -68.96813517835146]}}, {"type": "Feature", "properties": {"norad_id": 30117, "name": "FENGYUN 1C DEB", "group": "fengyun-1c-debris", "lat": -71.31036645014035, "lon": 1.532063071293602, "alt_km": 843.3578099068791, "timestamp": "2025-12-11T18:59:46.347267+00:00", "meta": {"OBJECT_NAME": "FENGYUN 1C DEB", "OBJECT_ID": "1999-025RW", "EPOCH": "2025-12-11T05:47:16.903104", "MEAN_MOTION": 14.07161331, "ECCENTRICITY": 0.01635959, "INCLINATION": 98.8039, "RA_OF_ASC_NODE": 333.7295, "ARG_OF_PERICENTER": 213.391, "MEAN_ANOMALY": 165.0341, "EPHEMERIS_TYPE": 0, "CLASSIFICATION_TYPE": "U", "NORAD_CAT_ID": 30117, "ELEMENT_SET_NO": 999, "REV_AT_EPOCH": 96968, "BSTAR": 0.00022164752, "MEAN_MOTION_DOT": 3.76e-06, "MEAN_MOTION_DDOT": 0}, "tle": {"line1": "1 30117U 99025RW  25345.24116786  .00000376  00000+0  22165-3 0  9995", "line2": "2 30117  98.8039 333.7295 0163595 213.3910 165.0341 14.07161331969686"}}, "geometry": {"type": "Point", "coordinates": [1.532063071293602, -71.31036645014035]}}, {"type": "Feature", "properties": {"norad_id": 30118, "name": "FENGYUN 1C DEB", "group": "fengyun-1c-debris", "lat": 23.381833391765646, "lon": -14.283978152030398, "alt_km": 826.9843420053239, "timestamp": "2025-12-11T18:59:46.347277+00:00", "meta": {"OBJECT_NAME": "FENGYUN 1C DEB", "OBJECT_ID": "1999-025RX", "EPOCH": "2025-12-11T00:12:00.939744", "MEAN_MOTION": 14.05122193, "ECCENTRICITY": 0.00853483, "INCLINATION": 98.8034, "RA_OF_ASC_NODE": 348.7977, "ARG_OF_PERICENTER": 64.6198, "MEAN_ANOMALY": 320.3731, "EPHEMERIS_TYPE": 0, "CLASSIFICATION_TYPE": "U", "NORAD_CAT_ID": 30118, "ELEMENT_SET_NO": 999, "REV_AT_EPOCH": 96907, "BSTAR": 0.00021174245, "MEAN_MOTION_DOT": 3.11e-06, "MEAN_MOTION_DDOT": 0}, "tle": {"line1": "1 30118U 99025RX  25345.00834421  .00000311  00000+0  21174-3 0  9991", "line2": "2 30118  98.8034 348.7977 0085348  64.6198 320.3731 14.05122193969072"}}, "geometry": {"type": "Point", "coordinates": [-14.283978152030398, 23.381833391765646]}}, {"type": "Feature", "properties": {"norad_id": 30119, "name": "FENGYUN 1C DEB", "group": "fengyun-1c-debris", "lat": -79.36474702534248, "lon": 112.01064378430463, "alt_km": 745.5198472180182, "timestamp": "2025-12-11T18:59:46.347287+00:00", "meta": {"OBJECT_NAME": "FENGYUN 1C DEB", "OBJECT_ID": "1999-025RY", "EPOCH": "2025-12-10T11:57:05.476320", "MEAN_MOTION": 14.22211015, "ECCENTRICITY": 0.01312098, "INCLINATION": 97.9209, "RA_OF_ASC_NODE": 338.6988, "ARG_OF_PERICENTER": 299.5729, "MEAN_ANOMALY": 185.0773, "EPHEMERIS_TYPE": 0, "CLASSIFICATION_TYPE": "U", "NORAD_CAT_ID": 30119, "ELEMENT_SET_NO": 999, "REV_AT_EPOCH": 97148, "BSTAR": 0.0026340782, "MEAN_MOTION_DOT": 6.346e-05, "MEAN_MOTION_DDOT": 0}, "tle": {"line1": "1 30119U 99025RY  25344.49798005  .00006346  00000+0  26341-2 0  9995", "line2": "2 30119  97.9209 338.6988 0131209 299.5729 185.0773 14.22211015971485"}}, "geometry": {"type": "Point", "coordinates": [112.01064378430463, -79.36474702534248]}}, {"type": "Feature", "properties": {"norad_id": 30120, "name": "FENGYUN 1C DEB", "group": "fengyun-1c-debris", "lat": -25.662459293150878, "lon": -116.6177468280173, "alt_km": 760.2473389992629, "timestamp": "2025-12-11T18:59:46.347297+00:00", "meta": {"OBJECT_NAME": "FENGYUN 1C DEB", "OBJECT_ID": "1999-025RZ", "EPOCH": "2025-12-11T04:49:58.201248", "MEAN_MOTION": 14.27579598, "ECCENTRICITY": 0.0063551, "INCLINATION": 98.8516, "RA_OF_ASC_NODE": 67.0785, "ARG_OF_PERICENTER": 215.9666, "MEAN_ANOMALY": 198.8259, "EPHEMERIS_TYPE": 0, "CLASSIFICATION_TYPE": "U", "NORAD_CAT_ID": 30120, "ELEMENT_SET_NO": 999, "REV_AT_EPOCH": 97349, "BSTAR": 0.0029891906, "MEAN_MOTION_DOT": 7.476e-05, "MEAN_MOTION_DDOT": 0}, "tle": {"line1": "1 30120U 99025RZ  25345.20136807  .00007476  00000+0  29892-2 0  9992", "line2": "2 30120  98.8516  67.0785 0063551 215.9666 198.8259 14.27579598973494"}}, "geometry": {"type": "Point", "coordinates": [-116.6177468280173, -25.662459293150878]}}]}